[{"OBJECT_NAME":"JILIN-1 08","OBJECT_ID":"2018-008F","EPOCH":"2026-03-09T22:37:53.184288","MEAN_MOTION":15.32205976,"ECCENTRICITY":0.00081321,"INCLINATION":97.1902,"RA_OF_ASC_NODE":90.9961,"ARG_OF_PERICENTER":76.0646,"MEAN_ANOMALY":284.15,"EPHEMERIS_TYPE":0,"CLASSIFICATION_TYPE":"U","NORAD_CAT_ID":43160,"ELEMENT_SET_NO":999,"REV_AT_EPOCH":44974,"BSTAR":0.00036689195,"MEAN_MOTION_DOT":0.00011349,"MEAN_MOTION_DDOT":0},{"OBJECT_NAME":"STARLINK-31280","OBJECT_ID":"2024-017T","EPOCH":"2026-03-09T16:30:41.747616","MEAN_MOTION":15.30174156,"ECCENTRICITY":0.00012834,"INCLINATION":53.1614,"RA_OF_ASC_NODE":204.4881,"ARG_OF_PERICENTER":77.8411,"MEAN_ANOMALY":282.2734,"EPHEMERIS_TYPE":0,"CLASSIFICATION_TYPE":"U","NORAD_CAT_ID":58843,"ELEMENT_SET_NO":999,"REV_AT_EPOCH":12005,"BSTAR":6.2805382e-5,"MEAN_MOTION_DOT":1.5e-5,"MEAN_MOTION_DDOT":0}]
